OBJECT_NAME,OBJECT_ID,EPOCH,MEAN_MOTION,ECCENTRICITY,INCLINATION,RA_OF_ASC_NODE,ARG_OF_PERICENTER,MEAN_ANOMALY,EPHEMERIS_TYPE,CLASSIFICATION_TYPE,NORAD_CAT_ID,ELEMENT_SET_NO,REV_AT_EPOCH,BSTAR,MEAN_MOTION_DOT,MEAN_MOTION_DDOT
ONEWEB-0012,2019-010A,2026-07-12T15:16:02.871840,13.16594268,.0001693,87.9075,223.7304,87.8895,272.2430,0,U,44057,999,35491,.96914E-4,.5E-6,0
ONEWEB-0010,2019-010B,2026-07-12T14:03:06.938208,13.16593560,.0002291,87.9073,223.7370,101.9888,258.1500,0,U,44058,999,35495,.68498E-4,.39E-6,0
ONEWEB-0008,2019-010C,2026-07-12T12:50:09.237696,13.16593559,.00021808,87.9077,223.7416,87.6271,272.5109,0,U,44059,999,35506,.21237254E-3,.94E-6,0
ONEWEB-0007,2019-010D,2026-07-12T15:59:14.286048,13.15548356,.0001961,87.8983,254.1449,106.4468,253.6878,0,U,44060,999,35472,-.13118E-3,-.37E-6,0
ONEWEB-0006,2019-010E,2026-07-12T16:04:55.644672,13.15550953,.0002222,87.8992,254.1110,98.0787,262.0595,0,U,44061,999,35477,-.17033E-3,-.51E-6,0
ONEWEB-0011,2019-010F,2026-07-12T17:08:48.842016,13.15549733,.0002254,87.9004,254.1111,96.8079,263.3308,0,U,44062,999,35477,.57831E-4,.35E-6,0
ONEWEB-0013,2020-008A,2026-07-12T12:55:19.053408,13.09456443,.00010177,87.8490,47.7074,54.0793,306.0428,0,U,45131,999,30938,-.15700508E-2,-.528E-5,0
ONEWEB-0017,2020-008B,2026-07-12T13:54:30.539232,13.10375339,.0001981,87.8815,31.2079,92.0847,268.0507,0,U,45132,999,31127,-.17531E-2,-.599E-5,0
ONEWEB-0020,2020-008C,2026-07-12T13:10:31.823616,13.10369624,.00018106,87.8819,31.2131,85.6460,274.4874,0,U,45133,999,31166,.13987117E-2,.501E-5,0
ONEWEB-0021,2020-008D,2026-07-12T13:32:29.416704,13.10369415,.0001766,87.8807,31.2244,93.3325,266.8004,0,U,45134,999,31197,-.76767E-3,-.255E-5,0
ONEWEB-0023,2020-008F,2026-07-12T13:48:22.147776,13.10371056,.0001852,87.8819,31.2065,82.5092,277.6246,0,U,45136,999,31140,-.17485E-2,-.598E-5,0
ONEWEB-0024,2020-008G,2026-07-12T13:08:16.430496,13.10369963,.00018892,87.8836,31.2070,90.5894,269.5450,0,U,45137,999,31156,.14851056E-2,.531E-5,0
ONEWEB-0025,2020-008H,2026-07-12T13:07:52.972032,13.10369772,.00019287,87.8825,31.1951,67.1417,292.9914,0,U,45138,999,31189,.19540683E-2,.695E-5,0
ONEWEB-0026,2020-008J,2026-07-12T13:34:10.357824,13.11417862,.0001974,87.8882,16.0139,90.9397,269.1957,0,U,45139,999,31443,.1235E-2,.45E-5,0
ONEWEB-0028,2020-008K,2026-07-12T12:58:45.312672,13.11417299,.00013722,87.8879,16.0267,80.5733,279.5550,0,U,45140,999,31194,-.15024831E-2,-.52E-5,0
ONEWEB-0032,2020-008L,2026-07-12T13:57:08.767872,13.10374426,.0001494,87.8819,31.2098,72.9338,287.1953,0,U,45141,999,31162,-.17118E-2,-.585E-5,0
ONEWEB-0033,2020-008M,2026-07-12T13:20:17.474784,13.10368587,.000216,87.8812,31.2206,96.0978,264.0395,0,U,45142,999,31153,.27822E-3,.11E-5,0
ONEWEB-0035,2020-008N,2026-07-12T13:49:48.896832,13.10376379,.0001833,87.8813,31.2101,90.4578,269.6759,0,U,45143,999,31126,-.18097E-2,-.619E-5,0
ONEWEB-0036,2020-008P,2026-07-12T13:17:41.745696,13.10370396,.0001757,87.8824,31.2310,84.1417,275.9910,0,U,45144,999,31168,.95627E-3,.346E-5,0
ONEWEB-0038,2020-008Q,2026-07-12T11:59:09.359232,13.11416478,.00017552,87.8894,16.0391,146.0014,214.1227,0,U,45145,999,31364,.15353908E-2,.557E-5,0
ONEWEB-0039,2020-008R,2026-07-12T13:25:10.687872,13.10371484,.0001268,87.8814,31.2111,75.5375,284.5892,0,U,45146,999,31148,-.54674E-4,-.6E-7,0
ONEWEB-0040,2020-008S,2026-07-12T13:15:23.954976,13.10369166,.0001898,87.8811,31.2227,76.9620,283.1719,0,U,45147,999,31118,.10084E-2,.365E-5,0
ONEWEB-0043,2020-008U,2026-07-12T13:18:03.362112,13.10372016,.0001349,87.8815,31.2111,78.9590,281.1689,0,U,45149,999,31150,.69363E-3,.255E-5,0
ONEWEB-0044,2020-008V,2026-07-12T13:59:23.880192,13.10376502,.0001735,87.8828,31.2082,81.6933,278.4391,0,U,45150,999,31180,-.16509E-2,-.564E-5,0
ONEWEB-0045,2020-008W,2026-07-12T13:41:29.915232,13.11417039,.0001737,87.8886,16.0067,91.3094,268.8233,0,U,45151,999,31373,.15765E-2,.571E-5,0
ONEWEB-0047,2020-008X,2026-07-12T13:49:23.611008,13.10371446,.0001866,87.8822,31.2082,94.2741,265.8599,0,U,45152,999,31152,-.19084E-2,-.653E-5,0
ONEWEB-0048,2020-008Y,2026-07-12T13:42:17.190720,13.10372177,.00017,87.8810,31.2278,91.0563,269.0759,0,U,45153,999,31113,-.13931E-2,-.474E-5,0
ONEWEB-0049,2020-008Z,2026-07-12T13:46:56.470944,13.10371128,.000194,87.8812,31.2168,75.0605,285.0737,0,U,45154,999,31135,-.17149E-2,-.586E-5,0
ONEWEB-0051,2020-008AA,2026-07-12T13:39:03.640896,13.11418418,.0001836,87.8887,16.0130,90.2058,269.9280,0,U,45155,999,31441,.15879E-2,.576E-5,0
ONEWEB-0052,2020-008AB,2026-07-12T14:16:42.873024,13.10377634,.0001809,87.8826,31.2004,74.2788,285.8539,0,U,45156,999,31126,-.16031E-3,-.43E-6,0
